{
  "type": "FeatureCollection",
  "features": [
    {
      "type": "Feature",
      "properties": {
        "norad_id": 31674,
        "name": "FENGYUN 1C DEB",
        "group": "fengyun-1c-debris",
        "lat": 27.820875204587548,
        "lon": 23.77632951080304,
        "alt_km": 726.0834648734044,
        "timestamp": "2025-12-17T21:39:45.969993+00:00",
        "meta_object_name": "FENGYUN 1C DEB",
        "meta_object_id": "1999-025CCG",
        "meta_epoch": "2025-12-13T08:22:41.288736",
        "meta_mean_motion": 14.51898371,
        "meta_eccentricity": 0.00245296,
        "meta_inclination": 98.9271,
        "meta_ra_of_asc_node": 23.6977,
        "meta_arg_of_pericenter": 283.0271,
        "meta_mean_anomaly": 76.8184,
        "meta_ephemeris_type": 0,
        "meta_classification_type": "U",
        "meta_norad_cat_id": 31674,
        "meta_element_set_no": 999,
        "meta_rev_at_epoch": 64623,
        "meta_bstar": 0.0046279629,
        "meta_mean_motion_dot": 0.00018727,
        "meta_mean_motion_ddot": 0,
        "tle_line1": "1 31674U 99025CCG 25347.34908899  .00018727  00000+0  46280-2 0  9993",
        "tle_line2": "2 31674  98.9271  23.6977 0024529 283.0271  76.8184 14.51898371646230"
      },
      "geometry": {
        "type": "Point",
        "coordinates": [
          23.77632951080304,
          27.820875204587548
        ]
      }
    },
    {
      "type": "Feature",
      "properties": {
        "norad_id": 31678,
        "name": "FENGYUN 1C DEB",
        "group": "fengyun-1c-debris",
        "lat": 9.362712785178827,
        "lon": 99.88023383111484,
        "alt_km": 533.3951211087506,
        "timestamp": "2025-12-17T21:39:45.970002+00:00",
        "meta_object_name": "FENGYUN 1C DEB",
        "meta_object_id": "1999-025CCL",
        "meta_epoch": "2025-12-17T13:21:34.128864",
        "meta_mean_motion": 14.53232877,
        "meta_eccentricity": 0.02587183,
        "meta_inclination": 98.7998,
        "meta_ra_of_asc_node": 100.9803,
        "meta_arg_of_pericenter": 13.2727,
        "meta_mean_anomaly": 347.5106,
        "meta_ephemeris_type": 0,
        "meta_classification_type": "U",
        "meta_norad_cat_id": 31678,
        "meta_element_set_no": 999,
        "meta_rev_at_epoch": 96909,
        "meta_bstar": 0.00061595616,
        "meta_mean_motion_dot": 3.92e-05,
        "meta_mean_motion_ddot": 0,
        "tle_line1": "1 31678U 99025CCL 25351.55664501  .00003920  00000+0  61596-3 0  9991",
        "tle_line2": "2 31678  98.7998 100.9803 0258718  13.2727 347.5106 14.53232877969092"
      },
      "geometry": {
        "type": "Point",
        "coordinates": [
          99.88023383111484,
          9.362712785178827
        ]
      }
    },
    {
      "type": "Feature",
      "properties": {
        "norad_id": 31680,
        "name": "FENGYUN 1C DEB",
        "group": "fengyun-1c-debris",
        "lat": -10.824368042705178,
        "lon": -80.87751212184875,
        "alt_km": 489.48173950764703,
        "timestamp": "2025-12-17T21:39:45.970011+00:00",
        "meta_object_name": "FENGYUN 1C DEB",
        "meta_object_id": "1999-025CCN",
        "meta_epoch": "2025-12-16T13:18:49.410720",
        "meta_mean_motion": 15.24349933,
        "meta_eccentricity": 0.00750456,
        "meta_inclination": 99.8356,
        "meta_ra_of_asc_node": 99.2579,
        "meta_arg_of_pericenter": 277.5112,
        "meta_mean_anomaly": 81.7597,
        "meta_ephemeris_type": 0,
        "meta_classification_type": "U",
        "meta_norad_cat_id": 31680,
        "meta_element_set_no": 999,
        "meta_rev_at_epoch": 230,
        "meta_bstar": 0.0010112684,
        "meta_mean_motion_dot": 0.00026773,
        "meta_mean_motion_ddot": 0,
        "tle_line1": "1 31680U 99025CCN 25350.55473855  .00026773  00000+0  10113-2 0  9992",
        "tle_line2": "2 31680  99.8356  99.2579 0075045 277.5112  81.7597 15.24349933  2302"
      },
      "geometry": {
        "type": "Point",
        "coordinates": [
          -80.87751212184875,
          -10.824368042705178
        ]
      }
    },
    {
      "type": "Feature",
      "properties": {
        "norad_id": 31685,
        "name": "FENGYUN 1C DEB",
        "group": "fengyun-1c-debris",
        "lat": 34.15606038818601,
        "lon": 9.983042623574661,
        "alt_km": 869.9057460067643,
        "timestamp": "2025-12-17T21:39:45.970020+00:00",
        "meta_object_name": "FENGYUN 1C DEB",
        "meta_object_id": "1999-025CCT",
        "meta_epoch": "2025-12-17T01:03:24.159168",
        "meta_mean_motion": 14.09659985,
        "meta_eccentricity": 0.00161029,
        "meta_inclination": 98.7306,
        "meta_ra_of_asc_node": 15.1349,
        "meta_arg_of_pericenter": 213.0744,
        "meta_mean_anomaly": 146.9421,
        "meta_ephemeris_type": 0,
        "meta_classification_type": "U",
        "meta_norad_cat_id": 31685,
        "meta_element_set_no": 999,
        "meta_rev_at_epoch": 95150,
        "meta_bstar": 5.5834813e-05,
        "meta_mean_motion_dot": 5.5e-07,
        "meta_mean_motion_ddot": 0,
        "tle_line1": "1 31685U 99025CCT 25351.04402962  .00000055  00000+0  55835-4 0  9990",
        "tle_line2": "2 31685  98.7306  15.1349 0016102 213.0744 146.9421 14.09659985951505"
      },
      "geometry": {
        "type": "Point",
        "coordinates": [
          9.983042623574661,
          34.15606038818601
        ]
      }
    },
    {
      "type": "Feature",
      "properties": {
        "norad_id": 31686,
        "name": "FENGYUN 1C DEB",
        "group": "fengyun-1c-debris",
        "lat": -61.57555275697491,
        "lon": -131.84744765860145,
        "alt_km": 857.0875352377643,
        "timestamp": "2025-12-17T21:39:45.970029+00:00",
        "meta_object_name": "FENGYUN 1C DEB",
        "meta_object_id": "1999-025CCU",
        "meta_epoch": "2025-12-15T11:29:17.235744",
        "meta_mean_motion": 14.72154688,
        "meta_eccentricity": 0.02834015,
        "meta_inclination": 98.1523,
        "meta_ra_of_asc_node": 61.0769,
        "meta_arg_of_pericenter": 80.7699,
        "meta_mean_anomaly": 282.5442,
        "meta_ephemeris_type": 0,
        "meta_classification_type": "U",
        "meta_norad_cat_id": 31686,
        "meta_element_set_no": 999,
        "meta_rev_at_epoch": 97859,
        "meta_bstar": 0.00047059205,
        "meta_mean_motion_dot": 5.561e-05,
        "meta_mean_motion_ddot": 0,
        "tle_line1": "1 31686U 99025CCU 25349.47867171  .00005561  00000+0  47059-3 0  9997",
        "tle_line2": "2 31686  98.1523  61.0769 0283401  80.7699 282.5442 14.72154688978591"
      },
      "geometry": {
        "type": "Point",
        "coordinates": [
          -131.84744765860145,
          -61.57555275697491
        ]
      }
    },
    {
      "type": "Feature",
      "properties": {
        "norad_id": 31688,
        "name": "FENGYUN 1C DEB",
        "group": "fengyun-1c-debris",
        "lat": 22.996271467317328,
        "lon": 42.05247366215105,
        "alt_km": 897.8404156240495,
        "timestamp": "2025-12-17T21:39:45.970038+00:00",
        "meta_object_name": "FENGYUN 1C DEB",
        "meta_object_id": "1999-025CCW",
        "meta_epoch": "2025-12-17T02:42:53.458272",
        "meta_mean_motion": 14.02315668,
        "meta_eccentricity": 0.00756554,
        "meta_inclination": 98.9639,
        "meta_ra_of_asc_node": 45.1169,
        "meta_arg_of_pericenter": 129.2164,
        "meta_mean_anomaly": 231.575,
        "meta_ephemeris_type": 0,
        "meta_classification_type": "U",
        "meta_norad_cat_id": 31688,
        "meta_element_set_no": 999,
        "meta_rev_at_epoch": 95339,
        "meta_bstar": -2.8327922e-05,
        "meta_mean_motion_dot": -8.8e-07,
        "meta_mean_motion_ddot": 0,
        "tle_line1": "1 31688U 99025CCW 25351.11311873 -.00000088  00000+0 -28328-4 0  9996",
        "tle_line2": "2 31688  98.9639  45.1169 0075655 129.2164 231.5750 14.02315668953399"
      },
      "geometry": {
        "type": "Point",
        "coordinates": [
          42.05247366215105,
          22.996271467317328
        ]
      }
    },
    {
      "type": "Feature",
      "properties": {
        "norad_id": 31691,
        "name": "FENGYUN 1C DEB",
        "group": "fengyun-1c-debris",
        "lat": -64.30677886125395,
        "lon": 97.37239129537308,
        "alt_km": 795.9745695858919,
        "timestamp": "2025-12-17T21:39:45.970048+00:00",
        "meta_object_name": "FENGYUN 1C DEB",
        "meta_object_id": "1999-025CCZ",
        "meta_epoch": "2025-12-17T11:52:08.430528",
        "meta_mean_motion": 14.26190936,
        "meta_eccentricity": 0.00616801,
        "meta_inclination": 98.8819,
        "meta_ra_of_asc_node": 77.9922,
        "meta_arg_of_pericenter": 225.8341,
        "meta_mean_anomaly": 133.776,
        "meta_ephemeris_type": 0,
        "meta_classification_type": "U",
        "meta_norad_cat_id": 31691,
        "meta_element_set_no": 999,
        "meta_rev_at_epoch": 64179,
        "meta_bstar": 0.001756178,
        "meta_mean_motion_dot": 4.247e-05,
        "meta_mean_motion_ddot": 0,
        "tle_line1": "1 31691U 99025CCZ 25351.49454202  .00004247  00000+0  17562-2 0  9990",
        "tle_line2": "2 31691  98.8819  77.9922 0061680 225.8341 133.7760 14.26190936641792"
      },
      "geometry": {
        "type": "Point",
        "coordinates": [
          97.37239129537308,
          -64.30677886125395
        ]
      }
    }
  ]
}